ONEWEB-0205             
1 48226U 21031S   25260.17937613 -.00000096  00000+0 -29205-3 0  9998
2 48226  87.9080 344.0533 0002037 104.4856 255.6500 13.14503775212406
ONEWEB-0206             
1 48227U 21031T   25259.77183499  .00000136  00000+0  33127-3 0  9999
2 48227  87.9090 344.1171 0001934 100.4438 259.6910 13.14503971212300
ONEWEB-0182             
1 48228U 21031U   25259.99543550  .00000097  00000+0  22847-3 0  9995
2 48228  87.9081 344.1157 0002076  96.4420 263.6946 13.14502808212546
ONEWEB-0186             
1 48229U 21031V   25260.23488445  .00000197  00000+0  49660-3 0  9999
2 48229  87.9091 344.0314 0001931 103.1336 257.0010 13.14504096212521
ONEWEB-0181             
1 48230U 21031W   25260.21268536  .00000152  00000+0  37577-3 0  9991
2 48230  87.9072 344.1057 0001862 106.3776 253.7558 13.14502924212374
ONEWEB-0188             
1 48231U 21031X   25260.25073271 -.00000079  00000+0 -24705-3 0  9995
2 48231  87.9085 344.0911 0001916 100.5456 259.5890 13.14503919212286
ONEWEB-0220             
1 48232U 21031Y   25259.98591814  .00000184  00000+0  46227-3 0  9990
2 48232  87.9085 344.0822 0002098 104.1443 255.9920 13.14503638212514
ONEWEB-0165             
1 48233U 21031Z   25260.24280823  .00000041  00000+0  76785-4 0  9992
2 48233  87.9068 344.0713 0001959 105.5641 254.5705 13.14502375212507
